GSAT0101 (PRN E11)      
1 37846U 11060A   15225.98897269 -.00000027  00000-0  00000+0 0  9998
2 37846  55.3368  90.6271 0002320 341.4352 127.0937  1.70474401 23736
GSAT0102 (PRN E12)      
1 37847U 11060B   15225.84550196 -.00000028  00000-0  00000+0 0  9990
2 37847  55.3374  90.6300 0002954 306.7128 114.8476  1.70474508 23735
GSAT0103 (PRN E19)      
1 38857U 12055A   15225.27125346  .00000023  00000-0  00000+0 0  9993
2 38857  54.9839 210.7289 0004934 238.0939 121.8338  1.70473767 17640
GSAT0104 (PRN E20)      
1 38858U 12055B   15225.20586758  .00000023  00000-0  00000+0 0  9995
2 38858  54.9848 210.7293 0003950 239.4295 120.5076  1.70473865 17580
GSAT0201 (PRN E18)      
1 40128U 14050A   15224.76112370 -.00000054  00000-0  00000+0 0  9995
2 40128  49.8698  72.2872 1571371  39.1818 331.3295  1.85518741  6769
GSAT0202 (PRN E14)      
1 40129U 14050B   15226.10910233 -.00000053  00000-0  00000+0 0  9999
2 40129  49.9290  71.2051 1570990  40.4332 330.3736  1.85519471  6983
GSAT0203 (PRN E26)      
1 40544U 15017A   15223.83865289 -.00000037  00000-0  00000+0 0  9993
2 40544  55.1268  91.0764 0001920 221.8479 138.1949  1.70462193  2323
GSAT0204 (PRN E22)      
1 40545U 15017B   15225.97055541 -.00000028  00000-0  00000+0 0  9993
2 40545  55.1310  91.0242 0002443 145.7154 214.3936  1.70475502  2352
